{
    "links": {
        "self": "http://www.neowsapp.com/rest/v1/neo/3546797?api_key=iIulBulltgU6a56xZRHN4H3l9WmuAYTsLGpBGhQ2"
    },
    "id": "3546797",
    "neo_reference_id": "3546797",
    "name": "(2010 SY3)",
    "designation": "2010 SY3",
    "nasa_jpl_url": "http://ssd.jpl.nasa.gov/sbdb.cgi?sstr=3546797",
    "absolute_magnitude_h": 23.1,
    "estimated_diameter": {
        "kilometers": {
            "estimated_diameter_min": 0.063760979,
            "estimated_diameter_max": 0.1425738833
        },
        "meters": {
            "estimated_diameter_min": 63.7609789875,
            "estimated_diameter_max": 142.5738833281
        },
        "miles": {
            "estimated_diameter_min": 0.0396192233,
            "estimated_diameter_max": 0.0885912765
        },
        "feet": {
            "estimated_diameter_min": 209.1895703015,
            "estimated_diameter_max": 467.7620993781
        }
    },
    "is_potentially_hazardous_asteroid": false,
    "close_approach_data": [
        {
            "close_approach_date": "2010-09-19",
            "close_approach_date_full": "2010-Sep-19 19:22",
            "epoch_date_close_approach": 1284924120000,
            "relative_velocity": {
                "kilometers_per_second": "3.9231601309",
                "kilometers_per_hour": "14123.3764710695",
                "miles_per_hour": "8775.7168967042"
            },
            "miss_distance": {
                "astronomical": "0.2310649702",
                "lunar": "89.8842734078",
                "kilometers": "34566827.373533474",
                "miles": "21478830.5433069812"
            },
            "orbiting_body": "Earth"
        }
    ],
    "orbital_data": {
        "orbit_id": "10",
        "orbit_determination_date": "2017-04-06 08:56:34",
        "first_observation_date": "2010-09-16",
        "last_observation_date": "2010-10-30",
        "data_arc_in_days": 44,
        "observations_used": 23,
        "orbit_uncertainty": "7",
        "minimum_orbit_intersection": ".228771",
        "jupiter_tisserand_invariant": "3.607",
        "epoch_osculation": "2459000.5",
        "eccentricity": ".4202241879626093",
        "semi_major_axis": "2.119383418242934",
        "inclination": "6.179702987038104",
        "ascending_node_longitude": "196.5153025688124",
        "orbital_period": "1126.9709597211",
        "perihelion_distance": "1.228767242330378",
        "perihelion_argument": "157.9761864046219",
        "aphelion_distance": "3.009999594155489",
        "perihelion_time": "2458835.770143009976",
        "mean_anomaly": "52.62136349199688",
        "mean_motion": ".3194403519404723",
        "equinox": "J2000",
        "orbit_class": {
            "orbit_class_type": "AMO",
            "orbit_class_description": "Near-Earth asteroid orbits similar to that of 1221 Amor",
            "orbit_class_range": "1.017 AU < q (perihelion) < 1.3 AU"
        }
    },
    "is_sentry_object": false
}